OBJECT_NAME,OBJECT_ID,EPOCH,MEAN_MOTION,ECCENTRICITY,INCLINATION,RA_OF_ASC_NODE,ARG_OF_PERICENTER,MEAN_ANOMALY,EPHEMERIS_TYPE,CLASSIFICATION_TYPE,NORAD_CAT_ID,ELEMENT_SET_NO,REV_AT_EPOCH,BSTAR,MEAN_MOTION_DOT,MEAN_MOTION_DDOT
ONEWEB-0054,2020-008AD,2026-06-14T04:20:50.529696,13.10370074,.0001873,87.8841,36.8656,83.3603,276.7737,0,U,45158,999,30763,.1449E-2,.518E-5,0
ONEWEB-0056,2020-008AE,2026-06-14T03:40:01.570080,13.10377972,.0002018,87.8845,36.8653,89.4778,270.6580,0,U,45159,999,30778,.18923E-3,.79E-6,0
ONEWEB-0057,2020-008AF,2026-06-14T02:14:21.654816,13.10372531,.0002191,87.8837,36.8897,74.3766,285.7603,0,U,45160,999,30794,.19771E-2,.703E-5,0
ONEWEB-0058,2020-008AG,2026-06-14T03:45:11.056608,13.10375436,.0001594,87.8833,36.8831,82.0942,278.0366,0,U,45161,999,30802,.82642E-3,.301E-5,0
ONEWEB-0059,2020-008AH,2026-06-14T03:40:24.036672,13.10375908,.0001731,87.8836,36.8827,77.2918,282.8403,0,U,45162,999,30792,.35125E-3,.135E-5,0
ONEWEB-0062,2020-008AJ,2026-06-14T04:13:28.758720,13.10371521,.0001457,87.8840,36.8649,92.1618,267.9677,0,U,45163,999,30779,.1905E-2,.678E-5,0
ONEWEB-0065,2020-008AK,2026-06-14T03:11:17.795904,13.10372651,.0002153,87.8839,36.8815,80.8448,279.2922,0,U,45164,999,30748,-.17385E-2,-.594E-5,0
ONEWEB-0066,2020-020A,2026-06-14T02:16:31.476864,13.11416204,.0001709,87.8889,21.6870,79.6138,280.5183,0,U,45424,999,30227,-.1344E-2,-.464E-5,0
ONEWEB-0067,2020-020B,2026-06-14T03:11:07.870272,13.11423267,.0001968,87.8910,21.6006,82.0623,278.0728,0,U,45425,999,30233,.16061E-2,.582E-5,0
ONEWEB-0080,2020-020C,2026-06-14T03:10:28.128864,13.11416640,.0001579,87.8900,21.6754,92.2811,267.8498,0,U,45426,999,30230,.16006E-2,.58E-5,0
ONEWEB-0090,2020-020D,2026-06-14T03:51:56.882592,13.11414737,.0001773,87.8898,21.6739,87.2443,272.8888,0,U,45427,999,30227,-.12619E-2,-.434E-5,0
ONEWEB-0061,2020-020E,2026-06-14T02:48:04.989024,13.11419259,.0001764,87.8896,21.6679,84.6088,275.5241,0,U,45428,999,30222,.8749E-3,.323E-5,0
ONEWEB-0081,2020-020F,2026-06-14T02:21:24.594048,13.11417521,.0001851,87.8895,21.6824,78.7889,281.3447,0,U,45429,999,30233,-.1678E-2,-.582E-5,0
ONEWEB-0069,2020-020G,2026-06-14T02:24:02.725056,13.11416688,.0001832,87.8894,21.6847,82.3139,277.8196,0,U,45430,999,30226,-.95681E-3,-.326E-5,0
ONEWEB-0031,2020-020H,2026-06-14T03:15:09.010944,13.11416533,.0001668,87.8886,21.6825,89.7692,270.3627,0,U,45431,999,30225,.14279E-2,.519E-5,0
ONEWEB-0027,2020-020J,2026-06-14T01:42:59.790240,13.16833506,.000139,87.9196,6.4929,125.0409,235.0852,0,U,45432,999,30594,.82883E-1,.3192E-3,0
ONEWEB-0064,2020-020K,2026-06-14T03:12:42.702048,13.11415510,.0001777,87.8890,21.6746,90.8195,269.3137,0,U,45433,999,30228,.15115E-2,.548E-5,0
ONEWEB-0018,2020-020L,2026-06-14T02:09:02.006784,13.11433388,.000154,87.8891,21.6825,77.5786,282.5514,0,U,45434,999,30222,-.84681E-2,-.2988E-4,0
ONEWEB-0083,2020-020M,2026-06-14T03:44:38.412960,13.11415145,.0001749,87.8895,21.6630,86.5012,273.6316,0,U,45435,999,30227,-.91446E-3,-.311E-5,0
ONEWEB-0095,2020-020N,2026-06-14T03:32:27.185568,13.11419246,.0002443,87.8896,21.6733,95.0896,265.0511,0,U,45436,999,30227,.11945E-3,.55E-6,0
ONEWEB-0092,2020-020P,2026-06-14T02:26:18.266784,13.11535797,.0001581,87.8898,21.6744,98.8080,261.3227,0,U,45437,999,30238,-.61266E-1,-.21688E-3,0
ONEWEB-0085,2020-020Q,2026-06-14T03:44:14.222688,13.11414161,.0001811,87.8889,21.6700,85.7722,274.3613,0,U,45438,999,30227,-.81912E-3,-.278E-5,0
ONEWEB-0096,2020-020R,2026-06-14T03:46:53.159808,13.11421046,.0001877,87.8898,21.6655,87.9818,272.1525,0,U,45439,999,30226,-.10825E-2,-.371E-5,0
ONEWEB-0037,2020-020S,2026-06-14T02:46:38.419680,13.11913751,.0001904,87.8908,21.6476,86.0872,274.0474,0,U,45440,999,30229,.79163E-3,.295E-5,0
ONEWEB-0042,2020-020T,2026-06-14T03:32:02.378400,13.11413088,.0001866,87.8903,21.6637,81.2698,278.8642,0,U,45441,999,30226,-.40345E-3,-.13E-5,0
ONEWEB-0098,2020-020U,2026-06-14T03:26:08.256768,13.11414896,.0001747,87.8893,21.6741,86.7563,273.3765,0,U,45442,999,30224,.49566E-3,.188E-5,0
ONEWEB-0055,2020-020V,2026-06-14T02:55:26.576832,13.11417858,.0001756,87.8896,21.6772,87.1930,272.9399,0,U,45443,999,30221,.13537E-2,.492E-5,0
ONEWEB-0093,2020-020W,2026-06-14T02:26:29.550624,13.11420077,.0001992,87.8897,21.6743,73.9616,286.1731,0,U,45444,999,30227,-.28961E-2,-.1014E-4,0
ONEWEB-0029,2020-020X,2026-06-14T03:05:34.559808,13.11419591,.0001783,87.8884,21.6778,74.9263,285.2063,0,U,45445,999,30225,.18156E-2,.656E-5,0
ONEWEB-0068,2020-020Y,2026-06-14T02:26:06.405792,13.11418968,.0001765,87.8899,21.6780,78.7374,281.3952,0,U,45446,999,30219,-.84126E-3,-.285E-5,0
ONEWEB-0046,2020-020Z,2026-06-14T02:14:05.066016,13.11415656,.0002036,87.8892,21.6860,79.6154,280.5203,0,U,45447,999,30220,-.13297E-2,-.459E-5,0
